CCSDS_OMM_VERS = 2.0
CREATION_DATE  = 
ORIGINATOR     = 

OBJECT_NAME    = STARLINK-36488
OBJECT_ID      = 2026-002B
CENTER_NAME    = EARTH
REF_FRAME      = TEME
TIME_SYSTEM    = UTC
MEAN_ELEMENT_THEORY = SGP/SGP4

EPOCH          = 2026-01-13T04:00:04.999392
MEAN_MOTION    = 15.93562868
ECCENTRICITY   = .0001845
INCLINATION    = 42.9983
RA_OF_ASC_NODE = 287.2387
ARG_OF_PERICENTER = 273.7878
MEAN_ANOMALY   = 12.7612

EPHEMERIS_TYPE = 0
CLASSIFICATION_TYPE = U
NORAD_CAT_ID   = 67306
ELEMENT_SET_NO = 999
REV_AT_EPOCH   = 249
BSTAR          = -.35603E-2
MEAN_MOTION_DOT = -.1327201E-1
MEAN_MOTION_DDOT = .5148E-3

CCSDS_OMM_VERS = 2.0
CREATION_DATE  = 
ORIGINATOR     = 

OBJECT_NAME    = STARLINK-36481
OBJECT_ID      = 2026-002C
CENTER_NAME    = EARTH
REF_FRAME      = TEME
TIME_SYSTEM    = UTC
MEAN_ELEMENT_THEORY = SGP/SGP4

EPOCH          = 2026-01-13T04:00:04.999392
MEAN_MOTION    = 15.93662944
ECCENTRICITY   = .0001842
INCLINATION    = 42.9984
RA_OF_ASC_NODE = 287.2277
ARG_OF_PERICENTER = 274.3669
MEAN_ANOMALY   = 16.6034

EPHEMERIS_TYPE = 0
CLASSIFICATION_TYPE = U
NORAD_CAT_ID   = 67307
ELEMENT_SET_NO = 999
REV_AT_EPOCH   = 249
BSTAR          = -.35578E-2
MEAN_MOTION_DOT = -.1333257E-1
MEAN_MOTION_DDOT = .51962E-3

CCSDS_OMM_VERS = 2.0
CREATION_DATE  = 
ORIGINATOR     = 

OBJECT_NAME    = STARLINK-36449
OBJECT_ID      = 2026-002D
CENTER_NAME    = EARTH
REF_FRAME      = TEME
TIME_SYSTEM    = UTC
MEAN_ELEMENT_THEORY = SGP/SGP4

EPOCH          = 2026-01-13T04:00:04.999392
MEAN_MOTION    = 15.93717552
ECCENTRICITY   = .0001833
INCLINATION    = 42.9982
RA_OF_ASC_NODE = 287.2225
ARG_OF_PERICENTER = 272.9507
MEAN_ANOMALY   = 20.0852

EPHEMERIS_TYPE = 0
CLASSIFICATION_TYPE = U
NORAD_CAT_ID   = 67308
ELEMENT_SET_NO = 999
REV_AT_EPOCH   = 255
BSTAR          = -.35773E-2
MEAN_MOTION_DOT = -.1344316E-1
MEAN_MOTION_DDOT = .52783E-3

CCSDS_OMM_VERS = 2.0
CREATION_DATE  = 
ORIGINATOR     = 

OBJECT_NAME    = STARLINK-36482
OBJECT_ID      = 2026-002E
CENTER_NAME    = EARTH
REF_FRAME      = TEME
TIME_SYSTEM    = UTC
MEAN_ELEMENT_THEORY = SGP/SGP4

EPOCH          = 2026-01-13T04:00:04.999392
MEAN_MOTION    = 15.93978980
ECCENTRICITY   = .0001852
INCLINATION    = 42.9986
RA_OF_ASC_NODE = 287.1958
ARG_OF_PERICENTER = 272.0225
MEAN_ANOMALY   = 31.8605

EPHEMERIS_TYPE = 0
CLASSIFICATION_TYPE = U
NORAD_CAT_ID   = 67309
ELEMENT_SET_NO = 999
REV_AT_EPOCH   = 249
BSTAR          = -.35936E-2
MEAN_MOTION_DOT = -.1369052E-1
MEAN_MOTION_DDOT = .54717E-3

CCSDS_OMM_VERS = 2.0
CREATION_DATE  = 
ORIGINATOR     = 

OBJECT_NAME    = STARLINK-36491
OBJECT_ID      = 2026-002F
CENTER_NAME    = EARTH
REF_FRAME      = TEME
TIME_SYSTEM    = UTC
MEAN_ELEMENT_THEORY = SGP/SGP4

EPOCH          = 2026-01-13T04:00:04.999392
MEAN_MOTION    = 15.93626048
ECCENTRICITY   = .0001809
INCLINATION    = 42.9986
RA_OF_ASC_NODE = 287.2322
ARG_OF_PERICENTER = 270.6946
MEAN_ANOMALY   = 18.5990

EPHEMERIS_TYPE = 0
CLASSIFICATION_TYPE = U
NORAD_CAT_ID   = 67310
ELEMENT_SET_NO = 999
REV_AT_EPOCH   = 249
BSTAR          = -.35942E-2
MEAN_MOTION_DOT = -.1344131E-1
MEAN_MOTION_DDOT = .52722E-3

CCSDS_OMM_VERS = 2.0
CREATION_DATE  = 
ORIGINATOR     = 

OBJECT_NAME    = STARLINK-36495
OBJECT_ID      = 2026-002G
CENTER_NAME    = EARTH
REF_FRAME      = TEME
TIME_SYSTEM    = UTC
MEAN_ELEMENT_THEORY = SGP/SGP4

EPOCH          = 2026-01-13T04:00:04.999392
MEAN_MOTION    = 15.93765909
ECCENTRICITY   = .0001879
INCLINATION    = 42.9985
RA_OF_ASC_NODE = 287.2164
ARG_OF_PERICENTER = 272.0148
MEAN_ANOMALY   = 23.4082

EPHEMERIS_TYPE = 0
CLASSIFICATION_TYPE = U
NORAD_CAT_ID   = 67311
ELEMENT_SET_NO = 999
REV_AT_EPOCH   = 265
BSTAR          = -.35493E-2
MEAN_MOTION_DOT = -.1337317E-1
MEAN_MOTION_DDOT = .52306E-3

CCSDS_OMM_VERS = 2.0
CREATION_DATE  = 
ORIGINATOR     = 

OBJECT_NAME    = STARLINK-36485
OBJECT_ID      = 2026-002H
CENTER_NAME    = EARTH
REF_FRAME      = TEME
TIME_SYSTEM    = UTC
MEAN_ELEMENT_THEORY = SGP/SGP4

EPOCH          = 2026-01-13T04:00:04.999392
MEAN_MOTION    = 15.93821928
ECCENTRICITY   = .0001876
INCLINATION    = 42.9985
RA_OF_ASC_NODE = 287.2099
ARG_OF_PERICENTER = 271.7225
MEAN_ANOMALY   = 26.2784

EPHEMERIS_TYPE = 0
CLASSIFICATION_TYPE = U
NORAD_CAT_ID   = 67312
ELEMENT_SET_NO = 999
REV_AT_EPOCH   = 249
BSTAR          = -.3552E-2
MEAN_MOTION_DOT = -.1342262E-1
MEAN_MOTION_DDOT = .5269E-3

CCSDS_OMM_VERS = 2.0
CREATION_DATE  = 
ORIGINATOR     = 

OBJECT_NAME    = STARLINK-36445
OBJECT_ID      = 2026-002J
CENTER_NAME    = EARTH
REF_FRAME      = TEME
TIME_SYSTEM    = UTC
MEAN_ELEMENT_THEORY = SGP/SGP4

EPOCH          = 2026-01-13T04:00:04.999392
MEAN_MOTION    = 15.93870454
ECCENTRICITY   = .000185
INCLINATION    = 42.9983
RA_OF_ASC_NODE = 287.2062
ARG_OF_PERICENTER = 270.4021
MEAN_ANOMALY   = 29.0257

EPHEMERIS_TYPE = 0
CLASSIFICATION_TYPE = U
NORAD_CAT_ID   = 67313
ELEMENT_SET_NO = 999
REV_AT_EPOCH   = 265
BSTAR          = -.35756E-2
MEAN_MOTION_DOT = -.135454E-1
MEAN_MOTION_DDOT = .53601E-3

CCSDS_OMM_VERS = 2.0
CREATION_DATE  = 
ORIGINATOR     = 

OBJECT_NAME    = STARLINK-36476
OBJECT_ID      = 2026-002K
CENTER_NAME    = EARTH
REF_FRAME      = TEME
TIME_SYSTEM    = UTC
MEAN_ELEMENT_THEORY = SGP/SGP4

EPOCH          = 2026-01-13T04:00:04.999392
MEAN_MOTION    = 15.93929375
ECCENTRICITY   = .0001871
INCLINATION    = 42.9986
RA_OF_ASC_NODE = 287.2001
ARG_OF_PERICENTER = 274.2916
MEAN_ANOMALY   = 27.6781

EPHEMERIS_TYPE = 0
CLASSIFICATION_TYPE = U
NORAD_CAT_ID   = 67314
ELEMENT_SET_NO = 999
REV_AT_EPOCH   = 249
BSTAR          = -.35896E-2
MEAN_MOTION_DOT = -.1363992E-1
MEAN_MOTION_DDOT = .5432E-3

CCSDS_OMM_VERS = 2.0
CREATION_DATE  = 
ORIGINATOR     = 

OBJECT_NAME    = STARLINK-36463
OBJECT_ID      = 2026-002L
CENTER_NAME    = EARTH
REF_FRAME      = TEME
TIME_SYSTEM    = UTC
MEAN_ELEMENT_THEORY = SGP/SGP4

EPOCH          = 2026-01-13T04:00:04.999392
MEAN_MOTION    = 15.94032139
ECCENTRICITY   = .0001829
INCLINATION    = 42.9984
RA_OF_ASC_NODE = 287.1895
ARG_OF_PERICENTER = 270.0313
MEAN_ANOMALY   = 35.9489

EPHEMERIS_TYPE = 0
CLASSIFICATION_TYPE = U
NORAD_CAT_ID   = 67315
ELEMENT_SET_NO = 999
REV_AT_EPOCH   = 255
BSTAR          = -.36004E-2
MEAN_MOTION_DOT = -.1375471E-1
MEAN_MOTION_DDOT = .55217E-3

CCSDS_OMM_VERS = 2.0
CREATION_DATE  = 
ORIGINATOR     = 

OBJECT_NAME    = STARLINK-36461
OBJECT_ID      = 2026-002M
CENTER_NAME    = EARTH
REF_FRAME      = TEME
TIME_SYSTEM    = UTC
MEAN_ELEMENT_THEORY = SGP/SGP4

EPOCH          = 2026-01-13T04:00:04.999392
MEAN_MOTION    = 15.94092012
ECCENTRICITY   = .000183
INCLINATION    = 42.9983
RA_OF_ASC_NODE = 287.1826
ARG_OF_PERICENTER = 274.6868
MEAN_ANOMALY   = 34.0443

EPHEMERIS_TYPE = 0
CLASSIFICATION_TYPE = U
NORAD_CAT_ID   = 67316
ELEMENT_SET_NO = 999
REV_AT_EPOCH   = 265
BSTAR          = -.35997E-2
MEAN_MOTION_DOT = -.137955E-1
MEAN_MOTION_DDOT = .5555E-3

CCSDS_OMM_VERS = 2.0
CREATION_DATE  = 
ORIGINATOR     = 

OBJECT_NAME    = STARLINK-36450
OBJECT_ID      = 2026-002N
CENTER_NAME    = EARTH
REF_FRAME      = TEME
TIME_SYSTEM    = UTC
MEAN_ELEMENT_THEORY = SGP/SGP4

EPOCH          = 2026-01-13T04:00:04.999392
MEAN_MOTION    = 15.94157052
ECCENTRICITY   = .0001795
INCLINATION    = 42.9984
RA_OF_ASC_NODE = 287.1775
ARG_OF_PERICENTER = 270.6720
MEAN_ANOMALY   = 40.0998

EPHEMERIS_TYPE = 0
CLASSIFICATION_TYPE = U
NORAD_CAT_ID   = 67317
ELEMENT_SET_NO = 999
REV_AT_EPOCH   = 265
BSTAR          = -.36642E-2
MEAN_MOTION_DOT = -.1408792E-1
MEAN_MOTION_DDOT = .57765E-3

