STARLINK-36488          
1 67306U 26002B   26013.16672453 -.01327201  51480-3 -35603-2 0  9996
2 67306  42.9983 287.2387 0001845 273.7878  12.7612 15.93562868  2493
STARLINK-36481          
1 67307U 26002C   26013.16672453 -.01333257  51962-3 -35578-2 0  9991
2 67307  42.9984 287.2277 0001842 274.3669  16.6034 15.93662944  2492
STARLINK-36449          
1 67308U 26002D   26013.16672453 -.01344316  52783-3 -35773-2 0  9999
2 67308  42.9982 287.2225 0001833 272.9507  20.0852 15.93717552  2559
STARLINK-36482          
1 67309U 26002E   26013.16672453 -.01369052  54717-3 -35936-2 0  9994
2 67309  42.9986 287.1958 0001852 272.0225  31.8605 15.93978980  2498
STARLINK-36491          
1 67310U 26002F   26013.16672453 -.01344131  52722-3 -35942-2 0  9998
2 67310  42.9986 287.2322 0001809 270.6946  18.5990 15.93626048  2496
STARLINK-36495          
1 67311U 26002G   26013.16672453 -.01337317  52306-3 -35493-2 0  9996
2 67311  42.9985 287.2164 0001879 272.0148  23.4082 15.93765909  2652
STARLINK-36485          
1 67312U 26002H   26013.16672453 -.01342262  52690-3 -35520-2 0  9999
2 67312  42.9985 287.2099 0001876 271.7225  26.2784 15.93821928  2495
STARLINK-36445          
1 67313U 26002J   26013.16672453 -.01354540  53601-3 -35756-2 0  9996
2 67313  42.9983 287.2062 0001850 270.4021  29.0257 15.93870454  2658
STARLINK-36476          
1 67314U 26002K   26013.16672453 -.01363992  54320-3 -35896-2 0  9992
2 67314  42.9986 287.2001 0001871 274.2916  27.6781 15.93929375  2498
STARLINK-36463          
1 67315U 26002L   26013.16672453 -.01375471  55217-3 -36004-2 0  9996
2 67315  42.9984 287.1895 0001829 270.0313  35.9489 15.94032139  2553
STARLINK-36461          
1 67316U 26002M   26013.16672453 -.01379550  55550-3 -35997-2 0  9999
2 67316  42.9983 287.1826 0001830 274.6868  34.0443 15.94092012  2651
STARLINK-36450          
1 67317U 26002N   26013.16672453 -.01408792  57765-3 -36642-2 0  9999
2 67317  42.9984 287.1775 0001795 270.6720  40.0998 15.94157052  2657
